start=new Date('2022-02-04T00:00:00.000Z').valueOf();
sats=[{"COUNTRY_CODE":"US","ELEMENT_SET_NO":"999","MEAN_MOTION_DOT":"0.00002000","TLE_LINE1":"1 47378U 21005AF  22034.90405005  .00002000  00000-0  15310-3 0  9996","MEAN_MOTION":"15.06405042","EPOCH":"2022-02-03T21:41:49.924320","APOAPSIS":"548.272","OBJECT_ID":"2021-005AF","ECCENTRICITY":"0.00015500","REV_AT_EPOCH":"5830","SEMIMAJOR_AXIS":"6925.333","MEAN_ELEMENT_THEORY":"SGP4","TIME_SYSTEM":"UTC","OBJECT_NAME":"STARLINK-2098","EPHEMERIS_TYPE":"0","CLASSIFICATION_TYPE":"U","GP_ID":"195260574","REF_FRAME":"TEME","PERIOD":"95.592","BSTAR":"0.00015310000000","MEAN_ANOMALY":"284.2805","FILE":"3291273","SITE":"AFETR","NORAD_CAT_ID":"47378","OBJECT_TYPE":"PAYLOAD","MEAN_MOTION_DDOT":"0.0000000000000","ARG_OF_PERICENTER":"75.8356","RA_OF_ASC_NODE":"251.9786","PERIAPSIS":"546.125","DECAY_DATE":null,"LAUNCH_DATE":"2021-01-20","INCLINATION":"53.0538","RCS_SIZE":"LARGE","CENTER_NAME":"EARTH","TLE_LINE2":"2 47378  53.0538 251.9786 0001550  75.8356 284.2805 15.06405042 58300"},{"PERIAPSIS":"545.993","RA_OF_ASC_NODE":"252.5315","OBJECT_TYPE":"PAYLOAD","ARG_OF_PERICENTER":"76.0428","MEAN_MOTION_DDOT":"0.0000000000000","NORAD_CAT_ID":"47379","FILE":"3291273","SITE":"AFETR","MEAN_ANOMALY":"284.0757","TLE_LINE2":"2 47379  53.0547 252.5315 0001769  76.0428 284.0757 15.06398406 58287","RCS_SIZE":"LARGE","CENTER_NAME":"EARTH","INCLINATION":"53.0547","LAUNCH_DATE":"2021-01-20","DECAY_DATE":null,"SEMIMAJOR_AXIS":"6925.353","TIME_SYSTEM":"UTC","MEAN_ELEMENT_THEORY":"SGP4","OBJECT_ID":"2021-005AG","ECCENTRICITY":"0.00017690","REV_AT_EPOCH":"5828","EPOCH":"2022-02-03T18:41:22.724736","MEAN_MOTION":"15.06398406","TLE_LINE1":"1 47379U 21005AG  22034.77873524  .00000333  00000-0  41240-4 0  9996","APOAPSIS":"548.444","MEAN_MOTION_DOT":"0.00000333","COUNTRY_CODE":"US","ELEMENT_SET_NO":"999","REF_FRAME":"TEME","BSTAR":"0.00004124000000","PERIOD":"95.592","GP_ID":"195260827","CLASSIFICATION_TYPE":"U","EPHEMERIS_TYPE":"0","OBJECT_NAME":"STARLINK-2099"},{"INCLINATION":"53.0527","LAUNCH_DATE":"2021-01-20","DECAY_DATE":null,"TLE_LINE2":"2 47380  53.0527 262.7146 0001874  67.4531 292.6656 15.06397848 58145","RCS_SIZE":"LARGE","CENTER_NAME":"EARTH","FILE":"3291273","SITE":"AFETR","MEAN_ANOMALY":"292.6656","PERIAPSIS":"545.922","RA_OF_ASC_NODE":"262.7146","OBJECT_TYPE":"PAYLOAD","ARG_OF_PERICENTER":"67.4531","MEAN_MOTION_DDOT":"0.0000000000000","NORAD_CAT_ID":"47380","EPHEMERIS_TYPE":"0","OBJECT_NAME":"STARLINK-2100","REF_FRAME":"TEME","BSTAR":"0.00016422000000","PERIOD":"95.592","GP_ID":"195259076","CLASSIFICATION_TYPE":"U","EPOCH":"2022-02-03T17:46:58.177632","MEAN_MOTION":"15.06397848","TLE_LINE1":"1 47380U 21005AH  22034.74095113  .00002165  00000-0  16422-3 0  9993","APOAPSIS":"548.518","COUNTRY_CODE":"US","ELEMENT_SET_NO":"999","MEAN_MOTION_DOT":"0.00002165","SEMIMAJOR_AXIS":"6925.355","MEAN_ELEMENT_THEORY":"SGP4","TIME_SYSTEM":"UTC","OBJECT_ID":"2021-005AH","ECCENTRICITY":"0.00018740","REV_AT_EPOCH":"5814"},{"LAUNCH_DATE":"2021-01-20","DECAY_DATE":null,"INCLINATION":"53.0529","RCS_SIZE":"LARGE","CENTER_NAME":"EARTH","TLE_LINE2":"2 47381  53.0529 267.9786 0001560  68.5451 291.5704 15.06393281 58060","MEAN_ANOMALY":"291.5704","FILE":"3291273","SITE":"AFETR","OBJECT_TYPE":"PAYLOAD","MEAN_MOTION_DDOT":"0.0000000000000","NORAD_CAT_ID":"47381","ARG_OF_PERICENTER":"68.5451","PERIAPSIS":"546.154","RA_OF_ASC_NODE":"267.9786","OBJECT_NAME":"STARLINK-2101","EPHEMERIS_TYPE":"0","CLASSIFICATION_TYPE":"U","GP_ID":"195259326","REF_FRAME":"TEME","BSTAR":"0.00003021900000","PERIOD":"95.593","ELEMENT_SET_NO":"999","COUNTRY_CODE":"US","MEAN_MOTION_DOT":"0.00000169","MEAN_MOTION":"15.06393281","EPOCH":"2022-02-03T16:22:41.316960","TLE_LINE1":"1 47381U 21005AJ  22034.68242265  .00000169  00000-0  30219-4 0  9992","APOAPSIS":"548.315","ECCENTRICITY":"0.00015600","OBJECT_ID":"2021-005AJ","REV_AT_EPOCH":"5806","SEMIMAJOR_AXIS":"6925.369","TIME_SYSTEM":"UTC","MEAN_ELEMENT_THEORY":"SGP4"},{"SITE":"AFETR","FILE":"3291283","MEAN_ANOMALY":"295.1397","PERIAPSIS":"546.049","RA_OF_ASC_NODE":"263.0300","NORAD_CAT_ID":"47382","OBJECT_TYPE":"PAYLOAD","MEAN_MOTION_DDOT":"0.0000000000000","ARG_OF_PERICENTER":"64.9770","INCLINATION":"53.0538","DECAY_DATE":null,"LAUNCH_DATE":"2021-01-20","TLE_LINE2":"2 47382  53.0538 263.0300 0001713  64.9770 295.1397 15.06392784 59060","CENTER_NAME":"EARTH","RCS_SIZE":"LARGE","APOAPSIS":"548.422","EPOCH":"2022-02-03T16:00:48.710016","MEAN_MOTION":"15.06392784","TLE_LINE1":"1 47382U 21005AK  22034.66723044 -.00001808  00000-0 -10255-3 0  9990","COUNTRY_CODE":"US","MEAN_MOTION_DOT":"-0.00001808","ELEMENT_SET_NO":"999","MEAN_ELEMENT_THEORY":"SGP4","TIME_SYSTEM":"UTC","SEMIMAJOR_AXIS":"6925.371","REV_AT_EPOCH":"5906","OBJECT_ID":"2021-005AK","ECCENTRICITY":"0.00017130","EPHEMERIS_TYPE":"0","OBJECT_NAME":"STARLINK-2102","BSTAR":"-0.00010255000000","PERIOD":"95.593","REF_FRAME":"TEME","GP_ID":"195263793","CLASSIFICATION_TYPE":"U"},{"TLE_LINE1":"1 47383U 21005AL  22034.88467457  .00002924  00000-0  21509-3 0  9990","EPOCH":"2022-02-03T21:13:55.882848","MEAN_MOTION":"15.06402271","APOAPSIS":"548.588","COUNTRY_CODE":"US","ELEMENT_SET_NO":"999","MEAN_MOTION_DOT":"0.00002924","SEMIMAJOR_AXIS":"6925.342","MEAN_ELEMENT_THEORY":"SGP4","TIME_SYSTEM":"UTC","OBJECT_ID":"2021-005AL","ECCENTRICITY":"0.00019950","REV_AT_EPOCH":"5830","EPHEMERIS_TYPE":"0","OBJECT_NAME":"STARLINK-2103","REF_FRAME":"TEME","PERIOD":"95.592","BSTAR":"0.00021509000000","GP_ID":"195260328","CLASSIFICATION_TYPE":"U","FILE":"3291273","SITE":"AFETR","MEAN_ANOMALY":"293.5694","RA_OF_ASC_NODE":"252.0623","PERIAPSIS":"545.825","MEAN_MOTION_DDOT":"0.0000000000000","OBJECT_TYPE":"PAYLOAD","ARG_OF_PERICENTER":"66.5505","NORAD_CAT_ID":"47383","INCLINATION":"53.0541","LAUNCH_DATE":"2021-01-20","DECAY_DATE":null,"TLE_LINE2":"2 47383  53.0541 252.0623 0001995  66.5505 293.5694 15.06402271 58308","CENTER_NAME":"EARTH","RCS_SIZE":"LARGE"},{"MEAN_ANOMALY":"289.1364","FILE":"3291273","SITE":"AFETR","OBJECT_TYPE":"PAYLOAD","MEAN_MOTION_DDOT":"0.0000000000000","NORAD_CAT_ID":"47384","ARG_OF_PERICENTER":"70.9825","PERIAPSIS":"545.902","RA_OF_ASC_NODE":"262.0241","DECAY_DATE":null,"LAUNCH_DATE":"2021-01-20","INCLINATION":"53.0537","CENTER_NAME":"EARTH","RCS_SIZE":"LARGE","TLE_LINE2":"2 47384  53.0537 262.0241 0001843  70.9825 289.1364 15.06411613 58166","COUNTRY_CODE":"US","MEAN_MOTION_DOT":"0.00004583","ELEMENT_SET_NO":"999","EPOCH":"2022-02-03T21:28:31.334304","MEAN_MOTION":"15.06411613","TLE_LINE1":"1 47384U 21005AM  22034.89480711  .00004583  00000-0  32628-3 0  9997","APOAPSIS":"548.454","ECCENTRICITY":"0.00018430","OBJECT_ID":"2021-005AM","REV_AT_EPOCH":"5816","SEMIMAJOR_AXIS":"6925.313","TIME_SYSTEM":"UTC","MEAN_ELEMENT_THEORY":"SGP4","OBJECT_NAME":"STARLINK-2104","EPHEMERIS_TYPE":"0","GP_ID":"195259576","CLASSIFICATION_TYPE":"U","REF_FRAME":"TEME","BSTAR":"0.00032628000000","PERIOD":"95.591"},{"FILE":"3291273","SITE":"AFETR","MEAN_ANOMALY":"291.5341","RA_OF_ASC_NODE":"261.9309","PERIAPSIS":"545.966","MEAN_MOTION_DDOT":"0.0000000000000","OBJECT_TYPE":"PAYLOAD","ARG_OF_PERICENTER":"68.5839","NORAD_CAT_ID":"47385","INCLINATION":"53.0545","DECAY_DATE":null,"LAUNCH_DATE":"2021-01-20","TLE_LINE2":"2 47385  53.0545 261.9309 0001796  68.5839 291.5341 15.06401367 58161","CENTER_NAME":"EARTH","RCS_SIZE":"LARGE","TLE_LINE1":"1 47385U 21005AN  22034.91418882  .00001571  00000-0  12432-3 0  9996","EPOCH":"2022-02-03T21:56:25.914048","MEAN_MOTION":"15.06401367","APOAPSIS":"548.453","ELEMENT_SET_NO":"999","COUNTRY_CODE":"US","MEAN_MOTION_DOT":"0.00001571","SEMIMAJOR_AXIS":"6925.344","TIME_SYSTEM":"UTC","MEAN_ELEMENT_THEORY":"SGP4","ECCENTRICITY":"0.00017960","OBJECT_ID":"2021-005AN","REV_AT_EPOCH":"5816","EPHEMERIS_TYPE":"0","OBJECT_NAME":"STARLINK-2105","REF_FRAME":"TEME","PERIOD":"95.592","BSTAR":"0.00012432000000","GP_ID":"195259826","CLASSIFICATION_TYPE":"U"},{"MEAN_MOTION_DDOT":"0.0000000000000","OBJECT_TYPE":"PAYLOAD","NORAD_CAT_ID":"47386","ARG_OF_PERICENTER":"66.5940","PERIAPSIS":"546.144","RA_OF_ASC_NODE":"262.6969","MEAN_ANOMALY":"293.5215","SITE":"AFETR","FILE":"3291273","RCS_SIZE":"LARGE","CENTER_NAME":"EARTH","TLE_LINE2":"2 47386  53.0540 262.6969 0001584  66.5940 293.5215 15.06390902 58145","DECAY_DATE":null,"LAUNCH_DATE":"2021-01-20","INCLINATION":"53.0540","REV_AT_EPOCH":"5814","ECCENTRICITY":"0.00015840","OBJECT_ID":"2021-005AP","MEAN_ELEMENT_THEORY":"SGP4","TIME_SYSTEM":"UTC","SEMIMAJOR_AXIS":"6925.376","ELEMENT_SET_NO":"999","COUNTRY_CODE":"US","MEAN_MOTION_DOT":"0.00001285","APOAPSIS":"548.338","EPOCH":"2022-02-03T17:52:17.823936","MEAN_MOTION":"15.06390902","TLE_LINE1":"1 47386U 21005AP  22034.74465074  .00001285  00000-0  10519-3 0  9999","GP_ID":"195260575","CLASSIFICATION_TYPE":"U","BSTAR":"0.00010519000000","PERIOD":"95.593","REF_FRAME":"TEME","OBJECT_NAME":"STARLINK-2106","EPHEMERIS_TYPE":"0"},{"BSTAR":"0.00077141000000","PERIOD":"95.591","REF_FRAME":"TEME","CLASSIFICATION_TYPE":"U","GP_ID":"195260828","EPHEMERIS_TYPE":"0","OBJECT_NAME":"STARLINK-2108","MEAN_ELEMENT_THEORY":"SGP4","TIME_SYSTEM":"UTC","SEMIMAJOR_AXIS":"6925.276","REV_AT_EPOCH":"5773","ECCENTRICITY":"0.00018010","OBJECT_ID":"2021-005AQ","APOAPSIS":"548.388","EPOCH":"2022-02-03T20:43:26.594400","MEAN_MOTION":"15.06423593","TLE_LINE1":"1 47387U 21005AQ  22034.86350225  .00011234  00000-0  77141-3 0  9993","COUNTRY_CODE":"US","ELEMENT_SET_NO":"999","MEAN_MOTION_DOT":"0.00011234","TLE_LINE2":"2 47387  53.0528 292.1640 0001801  64.2495 295.8680 15.06423593 57736","CENTER_NAME":"EARTH","RCS_SIZE":"LARGE","INCLINATION":"53.0528","LAUNCH_DATE":"2021-01-20","DECAY_DATE":null,"PERIAPSIS":"545.894","RA_OF_ASC_NODE":"292.1640","OBJECT_TYPE":"PAYLOAD","NORAD_CAT_ID":"47387","MEAN_MOTION_DDOT":"0.0000000000000","ARG_OF_PERICENTER":"64.2495","SITE":"AFETR","FILE":"3291273","MEAN_ANOMALY":"295.8680"}];
